[{"OBJECT_NAME":"TJS-15","OBJECT_ID":"2025-045A","EPOCH":"2026-05-21T17:53:08.710080","MEAN_MOTION":1.00274213,"ECCENTRICITY":0.0005687,"INCLINATION":0.2803,"RA_OF_ASC_NODE":84.8513,"ARG_OF_PERICENTER":292.9624,"MEAN_ANOMALY":224.2313,"EPHEMERIS_TYPE":0,"CLASSIFICATION_TYPE":"U","NORAD_CAT_ID":63157,"ELEMENT_SET_NO":999,"REV_AT_EPOCH":449,"BSTAR":0,"MEAN_MOTION_DOT":-2.73e-06,"MEAN_MOTION_DDOT":0},{"OBJECT_NAME":"TIANLIAN 2-04","OBJECT_ID":"2025-062A","EPOCH":"2026-05-21T23:07:31.098432","MEAN_MOTION":1.00271269,"ECCENTRICITY":0.00322384,"INCLINATION":4.4404,"RA_OF_ASC_NODE":274.8208,"ARG_OF_PERICENTER":11.1458,"MEAN_ANOMALY":20.6089,"EPHEMERIS_TYPE":0,"CLASSIFICATION_TYPE":"U","NORAD_CAT_ID":63361,"ELEMENT_SET_NO":999,"REV_AT_EPOCH":434,"BSTAR":0,"MEAN_MOTION_DOT":-1.47e-06,"MEAN_MOTION_DDOT":0},{"OBJECT_NAME":"TJS-16","OBJECT_ID":"2025-064A","EPOCH":"2026-05-21T16:39:46.084896","MEAN_MOTION":1.00272037,"ECCENTRICITY":0.0004109,"INCLINATION":1.0318,"RA_OF_ASC_NODE":81.5613,"ARG_OF_PERICENTER":284.006,"MEAN_ANOMALY":284.265,"EPHEMERIS_TYPE":0,"CLASSIFICATION_TYPE":"U","NORAD_CAT_ID":63397,"ELEMENT_SET_NO":999,"REV_AT_EPOCH":412,"BSTAR":0,"MEAN_MOTION_DOT":-1.13e-06,"MEAN_MOTION_DDOT":0},{"OBJECT_NAME":"TJS-17","OBJECT_ID":"2025-073A","EPOCH":"2026-05-21T16:40:53.476896","MEAN_MOTION":1.00270968,"ECCENTRICITY":0.0002841,"INCLINATION":0.9975,"RA_OF_ASC_NODE":82.8672,"ARG_OF_PERICENTER":286.1801,"MEAN_ANOMALY":285.0116,"EPHEMERIS_TYPE":0,"CLASSIFICATION_TYPE":"U","NORAD_CAT_ID":63524,"ELEMENT_SET_NO":999,"REV_AT_EPOCH":402,"BSTAR":0,"MEAN_MOTION_DOT":-7.7e-07,"MEAN_MOTION_DDOT":0},{"OBJECT_NAME":"TIANLIAN 2-05","OBJECT_ID":"2025-084A","EPOCH":"2026-05-22T03:58:28.423200","MEAN_MOTION":1.00271225,"ECCENTRICITY":0.00033794,"INCLINATION":4.5159,"RA_OF_ASC_NODE":280.1386,"ARG_OF_PERICENTER":130.0827,"MEAN_ANOMALY":269.5338,"EPHEMERIS_TYPE":0,"CLASSIFICATION_TYPE":"U","NORAD_CAT_ID":63662,"ELEMENT_SET_NO":999,"REV_AT_EPOCH":412,"BSTAR":0,"MEAN_MOTION_DOT":1.12e-06,"MEAN_MOTION_DDOT":0},{"OBJECT_NAME":"TJS-19","OBJECT_ID":"2025-097A","EPOCH":"2026-05-21T16:34:14.937024","MEAN_MOTION":1.00276588,"ECCENTRICITY":0.0001638,"INCLINATION":3.3307,"RA_OF_ASC_NODE":317.0352,"ARG_OF_PERICENTER":263.9097,"MEAN_ANOMALY":48.1404,"EPHEMERIS_TYPE":0,"CLASSIFICATION_TYPE":"U","NORAD_CAT_ID":63924,"ELEMENT_SET_NO":999,"REV_AT_EPOCH":387,"BSTAR":0,"MEAN_MOTION_DOT":-2.86e-06,"MEAN_MOTION_DDOT":0},{"OBJECT_NAME":"CHINASAT 3B","OBJECT_ID":"2025-106A","EPOCH":"2026-05-20T21:52:23.420352","MEAN_MOTION":1.0027328,"ECCENTRICITY":0.00019636,"INCLINATION":0.0282,"RA_OF_ASC_NODE":64.9938,"ARG_OF_PERICENTER":26.5079,"MEAN_ANOMALY":282.4761,"EPHEMERIS_TYPE":0,"CLASSIFICATION_TYPE":"U","NORAD_CAT_ID":64062,"ELEMENT_SET_NO":999,"REV_AT_EPOCH":378,"BSTAR":0,"MEAN_MOTION_DOT":-5.1e-07,"MEAN_MOTION_DDOT":0},{"OBJECT_NAME":"SXM-10","OBJECT_ID":"2025-122A","EPOCH":"2026-05-22T03:19:36.043968","MEAN_MOTION":1.00271511,"ECCENTRICITY":0.00018933,"INCLINATION":0.0267,"RA_OF_ASC_NODE":33.3823,"ARG_OF_PERICENTER":335.2813,"MEAN_ANOMALY":164.8428,"EPHEMERIS_TYPE":0,"CLASSIFICATION_TYPE":"U","NORAD_CAT_ID":64290,"ELEMENT_SET_NO":999,"REV_AT_EPOCH":342,"BSTAR":0,"MEAN_MOTION_DOT":-2.5e-07,"MEAN_MOTION_DDOT":0},{"OBJECT_NAME":"CHINASAT 9C","OBJECT_ID":"2025-132A","EPOCH":"2026-05-22T04:24:21.591936","MEAN_MOTION":1.00269681,"ECCENTRICITY":0.00026596,"INCLINATION":0.0085,"RA_OF_ASC_NODE":312.6072,"ARG_OF_PERICENTER":100.6575,"MEAN_ANOMALY":344.8306,"EPHEMERIS_TYPE":0,"CLASSIFICATION_TYPE":"U","NORAD_CAT_ID":64470,"ELEMENT_SET_NO":999,"REV_AT_EPOCH":388,"BSTAR":0,"MEAN_MOTION_DOT":-2.55e-06,"MEAN_MOTION_DDOT":0},{"OBJECT_NAME":"MTG-S1","OBJECT_ID":"2025-143A","EPOCH":"2026-05-22T05:34:20.205120","MEAN_MOTION":1.00269092,"ECCENTRICITY":0.0001495,"INCLINATION":0.6276,"RA_OF_ASC_NODE":333.6749,"ARG_OF_PERICENTER":17.4176,"MEAN_ANOMALY":328.938,"EPHEMERIS_TYPE":0,"CLASSIFICATION_TYPE":"U","NORAD_CAT_ID":64723,"ELEMENT_SET_NO":999,"REV_AT_EPOCH":315,"BSTAR":0,"MEAN_MOTION_DOT":-4e-07,"MEAN_MOTION_DDOT":0},{"OBJECT_NAME":"DROR 1","OBJECT_ID":"2025-148A","EPOCH":"2026-05-21T21:00:54.177120","MEAN_MOTION":1.00271118,"ECCENTRICITY":0.00031676,"INCLINATION":0.0412,"RA_OF_ASC_NODE":75.1871,"ARG_OF_PERICENTER":302.0766,"MEAN_ANOMALY":173.4695,"EPHEMERIS_TYPE":0,"CLASSIFICATION_TYPE":"U","NORAD_CAT_ID":64784,"ELEMENT_SET_NO":999,"REV_AT_EPOCH":303,"BSTAR":0,"MEAN_MOTION_DOT":-4.2e-07,"MEAN_MOTION_DDOT":0},{"OBJECT_NAME":"SHIYAN-29","OBJECT_ID":"2025-196A","EPOCH":"2026-05-21T14:38:24.604800","MEAN_MOTION":1.00263304,"ECCENTRICITY":0.00101438,"INCLINATION":28.7939,"RA_OF_ASC_NODE":18.8719,"ARG_OF_PERICENTER":174.6707,"MEAN_ANOMALY":0.3382,"EPHEMERIS_TYPE":0,"CLASSIFICATION_TYPE":"U","NORAD_CAT_ID":65486,"ELEMENT_SET_NO":999,"REV_AT_EPOCH":261,"BSTAR":0,"MEAN_MOTION_DOT":-2.83e-06,"MEAN_MOTION_DDOT":0},{"OBJECT_NAME":"TJS-20","OBJECT_ID":"2025-238A","EPOCH":"2026-05-22T02:27:48.510720","MEAN_MOTION":1.00275189,"ECCENTRICITY":0.00044316,"INCLINATION":5.5269,"RA_OF_ASC_NODE":299.6675,"ARG_OF_PERICENTER":145.0442,"MEAN_ANOMALY":254.4435,"EPHEMERIS_TYPE":0,"CLASSIFICATION_TYPE":"U","NORAD_CAT_ID":66142,"ELEMENT_SET_NO":999,"REV_AT_EPOCH":207,"BSTAR":0,"MEAN_MOTION_DOT":1e-07,"MEAN_MOTION_DDOT":0},{"OBJECT_NAME":"CMS-03 (GSAT-7R)","OBJECT_ID":"2025-249B","EPOCH":"2026-05-22T04:13:49.452384","MEAN_MOTION":1.00271508,"ECCENTRICITY":0.00023229,"INCLINATION":0.0046,"RA_OF_ASC_NODE":296.7298,"ARG_OF_PERICENTER":100.4999,"MEAN_ANOMALY":340.0029,"EPHEMERIS_TYPE":0,"CLASSIFICATION_TYPE":"U","NORAD_CAT_ID":66311,"ELEMENT_SET_NO":999,"REV_AT_EPOCH":208,"BSTAR":0,"MEAN_MOTION_DOT":-8.5e-07,"MEAN_MOTION_DDOT":0},{"OBJECT_NAME":"VIASAT-3 F2","OBJECT_ID":"2025-261A","EPOCH":"2026-05-22T01:47:33.324864","MEAN_MOTION":1.00273496,"ECCENTRICITY":7.332e-05,"INCLINATION":0.0254,"RA_OF_ASC_NODE":222.6442,"ARG_OF_PERICENTER":178.1019,"MEAN_ANOMALY":146.8803,"EPHEMERIS_TYPE":0,"CLASSIFICATION_TYPE":"U","NORAD_CAT_ID":66454,"ELEMENT_SET_NO":999,"REV_AT_EPOCH":253,"BSTAR":0,"MEAN_MOTION_DOT":-2.42e-06,"MEAN_MOTION_DDOT":0},{"OBJECT_NAME":"SHIJIAN-28 (SJ-28)","OBJECT_ID":"2025-277A","EPOCH":"2026-05-22T06:08:39.415200","MEAN_MOTION":1.00277454,"ECCENTRICITY":0.00010536,"INCLINATION":4.6037,"RA_OF_ASC_NODE":272.5482,"ARG_OF_PERICENTER":25.0619,"MEAN_ANOMALY":151.243,"EPHEMERIS_TYPE":0,"CLASSIFICATION_TYPE":"U","NORAD_CAT_ID":66549,"ELEMENT_SET_NO":999,"REV_AT_EPOCH":189,"BSTAR":0,"MEAN_MOTION_DOT":-3.72e-06,"MEAN_MOTION_DDOT":0},{"OBJECT_NAME":"TJS-22","OBJECT_ID":"2025-290A","EPOCH":"2026-05-21T22:41:13.771392","MEAN_MOTION":1.00274164,"ECCENTRICITY":0.00018211,"INCLINATION":1.5925,"RA_OF_ASC_NODE":286.2389,"ARG_OF_PERICENTER":349.0474,"MEAN_ANOMALY":11.123,"EPHEMERIS_TYPE":0,"CLASSIFICATION_TYPE":"U","NORAD_CAT_ID":66990,"ELEMENT_SET_NO":999,"REV_AT_EPOCH":176,"BSTAR":0,"MEAN_MOTION_DOT":-1.7e-07,"MEAN_MOTION_DDOT":0}]