TJS-15                  
1 63157U 25045A   26141.74523970 -.00000273  00000+0  00000+0 0  9990
2 63157   0.2803  84.8513 0005687 292.9624 224.2313  1.00274213  4490
TIANLIAN 2-04           
1 63361U 25062A   26141.96355438 -.00000147  00000+0  00000+0 0  9992
2 63361   4.4404 274.8208 0032238  11.1458  20.6089  1.00271269  4340
TJS-16                  
1 63397U 25064A   26141.69428339 -.00000113  00000+0  00000+0 0  9997
2 63397   1.0318  81.5613 0004109 284.0060 284.2650  1.00272037  4127
TJS-17                  
1 63524U 25073A   26141.69506339 -.00000077  00000+0  00000+0 0  9995
2 63524   0.9975  82.8672 0002841 286.1801 285.0116  1.00270968  4028
TIANLIAN 2-05           
1 63662U 25084A   26142.16560675  .00000112  00000+0  00000+0 0  9995
2 63662   4.5159 280.1386 0003379 130.0827 269.5338  1.00271225  4123
TJS-19                  
1 63924U 25097A   26141.69045066 -.00000286  00000+0  00000+0 0  9992
2 63924   3.3307 317.0352 0001638 263.9097  48.1404  1.00276588  3873
CHINASAT 3B             
1 64062U 25106A   26140.91138218 -.00000051  00000+0  00000+0 0  9993
2 64062   0.0282  64.9938 0001963  26.5079 282.4761  1.00273280  3780
SXM-10                  
1 64290U 25122A   26142.13861162 -.00000025  00000+0  00000+0 0  9992
2 64290   0.0267  33.3823 0001893 335.2813 164.8428  1.00271511  3426
CHINASAT 9C             
1 64470U 25132A   26142.18358324 -.00000255  00000+0  00000+0 0  9994
2 64470   0.0085 312.6072 0002659 100.6575 344.8306  1.00269681  3883
MTG-S1                  
1 64723U 25143A   26142.23217830 -.00000040  00000+0  00000+0 0  9991
2 64723   0.6276 333.6749 0001495  17.4176 328.9380  1.00269092  3156
DROR 1                  
1 64784U 25148A   26141.87562705 -.00000042  00000+0  00000+0 0  9998
2 64784   0.0412  75.1871 0003167 302.0766 173.4695  1.00271118  3030
SHIYAN-29               
1 65486U 25196A   26141.61000700 -.00000283  00000+0  00000+0 0  9992
2 65486  28.7939  18.8719 0010143 174.6707   0.3382  1.00263304  2618
TJS-20                  
1 66142U 25238A   26142.10264480  .00000010  00000+0  00000+0 0  9998
2 66142   5.5269 299.6675 0004431 145.0442 254.4435  1.00275189  2073
CMS-03 (GSAT-7R)        
1 66311U 25249B   26142.17626681 -.00000085  00000+0  00000+0 0  9993
2 66311   0.0046 296.7298 0002322 100.4999 340.0029  1.00271508  2085
VIASAT-3 F2             
1 66454U 25261A   26142.07469126 -.00000242  00000+0  00000+0 0  9998
2 66454   0.0254 222.6442 0000733 178.1019 146.8803  1.00273496  2532
SHIJIAN-28 (SJ-28)      
1 66549U 25277A   26142.25601175 -.00000372  00000+0  00000+0 0  9996
2 66549   4.6037 272.5482 0001053  25.0619 151.2430  1.00277454  1898
TJS-22                  
1 66990U 25290A   26141.94529828 -.00000017  00000+0  00000+0 0  9996
2 66990   1.5925 286.2389 0001821 349.0474  11.1230  1.00274164  1762
